[
  {
    "OBJECT_NAME": "SUPERVIEW NEO-2 OBJECT A",
    "OBJECT_ID": "2026-062A",
    "EPOCH": "2026-04-17T23:15:44.615232",
    "MEAN_MOTION": 15.19750187,
    "ECCENTRICITY": 0.00014338,
    "INCLINATION": 97.4401,
    "RA_OF_ASC_NODE": 116.1382,
    "ARG_OF_PERICENTER": 106.3622,
    "MEAN_ANOMALY": 253.7771,
    "EPHEMERIS_TYPE": 0,
    "CLASSIFICATION_TYPE": "U",
    "NORAD_CAT_ID": 68377,
    "ELEMENT_SET_NO": 999,
    "REV_AT_EPOCH": 350,
    "BSTAR": 8.7186453e-05,
    "MEAN_MOTION_DOT": 1.796e-05,
    "MEAN_MOTION_DDOT": 0
  },
  {
    "OBJECT_NAME": "SUPERVIEW NEO-2 OBJECT B",
    "OBJECT_ID": "2026-062B",
    "EPOCH": "2026-04-16T03:00:55.510272",
    "MEAN_MOTION": 15.19718143,
    "ECCENTRICITY": 0.00020007,
    "INCLINATION": 97.4416,
    "RA_OF_ASC_NODE": 114.3161,
    "ARG_OF_PERICENTER": 97.3979,
    "MEAN_ANOMALY": 262.7483,
    "EPHEMERIS_TYPE": 0,
    "CLASSIFICATION_TYPE": "U",
    "NORAD_CAT_ID": 68378,
    "ELEMENT_SET_NO": 999,
    "REV_AT_EPOCH": 322,
    "BSTAR": 7.6526966e-05,
    "MEAN_MOTION_DOT": 1.567e-05,
    "MEAN_MOTION_DDOT": 0
  },
  {
    "OBJECT_NAME": "CZ-2D R/B",
    "OBJECT_ID": "2026-062C",
    "EPOCH": "2026-04-17T23:57:42.893568",
    "MEAN_MOTION": 15.31445072,
    "ECCENTRICITY": 0.00507687,
    "INCLINATION": 97.4972,
    "RA_OF_ASC_NODE": 116.5321,
    "ARG_OF_PERICENTER": 340.5532,
    "MEAN_ANOMALY": 19.3771,
    "EPHEMERIS_TYPE": 0,
    "CLASSIFICATION_TYPE": "U",
    "NORAD_CAT_ID": 68379,
    "ELEMENT_SET_NO": 999,
    "REV_AT_EPOCH": 353,
    "BSTAR": 0.00021809508,
    "MEAN_MOTION_DOT": 6.808e-05,
    "MEAN_MOTION_DDOT": 0
  },
  {
    "OBJECT_NAME": "STARLINK-36296",
    "OBJECT_ID": "2026-063A",
    "EPOCH": "2026-04-17T22:00:01.999584",
    "MEAN_MOTION": 15.75238357,
    "ECCENTRICITY": 0.00013498,
    "INCLINATION": 97.2859,
    "RA_OF_ASC_NODE": 249.7948,
    "ARG_OF_PERICENTER": 86.3285,
    "MEAN_ANOMALY": 33.3123,
    "EPHEMERIS_TYPE": 0,
    "CLASSIFICATION_TYPE": "U",
    "NORAD_CAT_ID": 68380,
    "ELEMENT_SET_NO": 999,
    "REV_AT_EPOCH": 196,
    "BSTAR": -0.00080666891,
    "MEAN_MOTION_DOT": -0.00119039,
    "MEAN_MOTION_DDOT": 0
  },
  {
    "OBJECT_NAME": "STARLINK-37111",
    "OBJECT_ID": "2026-063B",
    "EPOCH": "2026-04-17T22:00:01.999584",
    "MEAN_MOTION": 15.75234032,
    "ECCENTRICITY": 0.00014066,
    "INCLINATION": 97.2856,
    "RA_OF_ASC_NODE": 249.6292,
    "ARG_OF_PERICENTER": 84.3319,
    "MEAN_ANOMALY": 15.3459,
    "EPHEMERIS_TYPE": 0,
    "CLASSIFICATION_TYPE": "U",
    "NORAD_CAT_ID": 68381,
    "ELEMENT_SET_NO": 999,
    "REV_AT_EPOCH": 476,
    "BSTAR": -0.00074897783,
    "MEAN_MOTION_DOT": -0.00110623,
    "MEAN_MOTION_DDOT": 0
  },
  {
    "OBJECT_NAME": "STARLINK-36946",
    "OBJECT_ID": "2026-063C",
    "EPOCH": "2026-04-17T22:54:32.406336",
    "MEAN_MOTION": 15.8086769,
    "ECCENTRICITY": 0.00014348,
    "INCLINATION": 97.285,
    "RA_OF_ASC_NODE": 249.6875,
    "ARG_OF_PERICENTER": 75.175,
    "MEAN_ANOMALY": 284.9677,
    "EPHEMERIS_TYPE": 0,
    "CLASSIFICATION_TYPE": "U",
    "NORAD_CAT_ID": 68382,
    "ELEMENT_SET_NO": 999,
    "REV_AT_EPOCH": 382,
    "BSTAR": 0.00082248224,
    "MEAN_MOTION_DOT": 0.00160717,
    "MEAN_MOTION_DDOT": 0
  },
  {
    "OBJECT_NAME": "STARLINK-37121",
    "OBJECT_ID": "2026-063D",
    "EPOCH": "2026-04-17T22:00:01.999584",
    "MEAN_MOTION": 15.75230447,
    "ECCENTRICITY": 0.00013269,
    "INCLINATION": 97.2858,
    "RA_OF_ASC_NODE": 249.6196,
    "ARG_OF_PERICENTER": 91.3648,
    "MEAN_ANOMALY": 344.3162,
    "EPHEMERIS_TYPE": 0,
    "CLASSIFICATION_TYPE": "U",
    "NORAD_CAT_ID": 68383,
    "ELEMENT_SET_NO": 999,
    "REV_AT_EPOCH": 476,
    "BSTAR": -0.00058643612,
    "MEAN_MOTION_DOT": -0.00086869,
    "MEAN_MOTION_DDOT": 0
  },
  {
    "OBJECT_NAME": "STARLINK-37137",
    "OBJECT_ID": "2026-063E",
    "EPOCH": "2026-04-17T22:09:47.942784",
    "MEAN_MOTION": 15.75220922,
    "ECCENTRICITY": 0.00014596,
    "INCLINATION": 97.2845,
    "RA_OF_ASC_NODE": 249.5766,
    "ARG_OF_PERICENTER": 82.933,
    "MEAN_ANOMALY": 277.2101,
    "EPHEMERIS_TYPE": 0,
    "CLASSIFICATION_TYPE": "U",
    "NORAD_CAT_ID": 68384,
    "ELEMENT_SET_NO": 999,
    "REV_AT_EPOCH": 381,
    "BSTAR": 0.00072056825,
    "MEAN_MOTION_DOT": 0.00108874,
    "MEAN_MOTION_DDOT": 0
  },
  {
    "OBJECT_NAME": "STARLINK-37128",
    "OBJECT_ID": "2026-063F",
    "EPOCH": "2026-04-17T22:51:17.940672",
    "MEAN_MOTION": 15.80862037,
    "ECCENTRICITY": 0.00024941,
    "INCLINATION": 97.2851,
    "RA_OF_ASC_NODE": 249.6918,
    "ARG_OF_PERICENTER": 45.8986,
    "MEAN_ANOMALY": 314.2487,
    "EPHEMERIS_TYPE": 0,
    "CLASSIFICATION_TYPE": "U",
    "NORAD_CAT_ID": 68385,
    "ELEMENT_SET_NO": 999,
    "REV_AT_EPOCH": 382,
    "BSTAR": 0.00086479818,
    "MEAN_MOTION_DOT": 0.00169127,
    "MEAN_MOTION_DDOT": 0
  },
  {
    "OBJECT_NAME": "STARLINK-37198",
    "OBJECT_ID": "2026-063G",
    "EPOCH": "2026-04-17T21:46:55.960896",
    "MEAN_MOTION": 15.75212949,
    "ECCENTRICITY": 0.00015391,
    "INCLINATION": 97.2847,
    "RA_OF_ASC_NODE": 249.5988,
    "ARG_OF_PERICENTER": 79.1313,
    "MEAN_ANOMALY": 281.0126,
    "EPHEMERIS_TYPE": 0,
    "CLASSIFICATION_TYPE": "U",
    "NORAD_CAT_ID": 68386,
    "ELEMENT_SET_NO": 999,
    "REV_AT_EPOCH": 381,
    "BSTAR": 0.00063104586,
    "MEAN_MOTION_DOT": 0.00095145,
    "MEAN_MOTION_DDOT": 0
  },
  {
    "OBJECT_NAME": "STARLINK-37223",
    "OBJECT_ID": "2026-063H",
    "EPOCH": "2026-04-17T22:49:07.758336",
    "MEAN_MOTION": 15.80857067,
    "ECCENTRICITY": 0.00017317,
    "INCLINATION": 97.2852,
    "RA_OF_ASC_NODE": 249.693,
    "ARG_OF_PERICENTER": 62.1802,
    "MEAN_ANOMALY": 297.9641,
    "EPHEMERIS_TYPE": 0,
    "CLASSIFICATION_TYPE": "U",
    "NORAD_CAT_ID": 68387,
    "ELEMENT_SET_NO": 999,
    "REV_AT_EPOCH": 382,
    "BSTAR": 0.00073435074,
    "MEAN_MOTION_DOT": 0.00143123,
    "MEAN_MOTION_DDOT": 0
  },
  {
    "OBJECT_NAME": "STARLINK-37203",
    "OBJECT_ID": "2026-063J",
    "EPOCH": "2026-04-17T22:48:02.852064",
    "MEAN_MOTION": 15.80840824,
    "ECCENTRICITY": 0.00015454,
    "INCLINATION": 97.2853,
    "RA_OF_ASC_NODE": 249.6942,
    "ARG_OF_PERICENTER": 71.8991,
    "MEAN_ANOMALY": 288.2446,
    "EPHEMERIS_TYPE": 0,
    "CLASSIFICATION_TYPE": "U",
    "NORAD_CAT_ID": 68388,
    "ELEMENT_SET_NO": 999,
    "REV_AT_EPOCH": 382,
    "BSTAR": 0.00041392122,
    "MEAN_MOTION_DOT": 0.00079965,
    "MEAN_MOTION_DDOT": 0
  },
  {
    "OBJECT_NAME": "STARLINK-37197",
    "OBJECT_ID": "2026-063K",
    "EPOCH": "2026-04-17T22:00:39.091968",
    "MEAN_MOTION": 15.75213715,
    "ECCENTRICITY": 0.00014407,
    "INCLINATION": 97.2846,
    "RA_OF_ASC_NODE": 249.5852,
    "ARG_OF_PERICENTER": 90.2664,
    "MEAN_ANOMALY": 269.8766,
    "EPHEMERIS_TYPE": 0,
    "CLASSIFICATION_TYPE": "U",
    "NORAD_CAT_ID": 68389,
    "ELEMENT_SET_NO": 999,
    "REV_AT_EPOCH": 381,
    "BSTAR": 0.00063403502,
    "MEAN_MOTION_DOT": 0.00095604,
    "MEAN_MOTION_DDOT": 0
  },
  {
    "OBJECT_NAME": "STARLINK-37193",
    "OBJECT_ID": "2026-063L",
    "EPOCH": "2026-04-17T22:00:01.999584",
    "MEAN_MOTION": 15.75237013,
    "ECCENTRICITY": 0.00013365,
    "INCLINATION": 97.2854,
    "RA_OF_ASC_NODE": 249.8701,
    "ARG_OF_PERICENTER": 96.164,
    "MEAN_ANOMALY": 215.4598,
    "EPHEMERIS_TYPE": 0,
    "CLASSIFICATION_TYPE": "U",
    "NORAD_CAT_ID": 68390,
    "ELEMENT_SET_NO": 999,
    "REV_AT_EPOCH": 309,
    "BSTAR": -0.00072468099,
    "MEAN_MOTION_DOT": -0.00107095,
    "MEAN_MOTION_DDOT": 0
  }
]