SUPERVIEW NEO-2 OBJECT A
1 68377U 26062A   26107.96926638  .00001796  00000+0  87186-4 0  9998
2 68377  97.4401 116.1382 0001433 106.3622 253.7771 15.19750187  3505
SUPERVIEW NEO-2 OBJECT B
1 68378U 26062B   26106.12564248  .00001567  00000+0  76527-4 0  9994
2 68378  97.4416 114.3161 0002000  97.3979 262.7483 15.19718143  3227
STARLINK-36296
1 68380U 26063A   26107.91668981 -.00119039  00000+0 -80667-3 0  9990
2 68380  97.2859 249.7948 0001349  86.3285  33.3123 15.75238357  1966
STARLINK-37111
1 68381U 26063B   26107.91668981 -.00110623  00000+0 -74898-3 0  9990
2 68381  97.2856 249.6292 0001406  84.3319  15.3459 15.75234032  4764
STARLINK-36946
1 68382U 26063C   26107.95454174  .00160717  00000+0  82248-3 0  9997
2 68382  97.2850 249.6875 0001434  75.1750 284.9677 15.80867690  3824
STARLINK-37121
1 68383U 26063D   26107.91668981 -.00086869  00000+0 -58644-3 0  9997
2 68383  97.2858 249.6196 0001326  91.3648 344.3162 15.75230447  4767
STARLINK-37137
1 68384U 26063E   26107.92347156  .00108874  00000+0  72057-3 0  9990
2 68384  97.2845 249.5766 0001459  82.9330 277.2101 15.75220922  3816
STARLINK-37128
1 68385U 26063F   26107.95229098  .00169127  00000+0  86480-3 0  9991
2 68385  97.2851 249.6918 0002494  45.8986 314.2487 15.80862037  3824
STARLINK-37198
1 68386U 26063G   26107.90759214  .00095145  00000+0  63105-3 0  9992
2 68386  97.2847 249.5988 0001539  79.1313 281.0126 15.75212949  3814
STARLINK-37223
1 68387U 26063H   26107.95078424  .00143123  00000+0  73435-3 0  9992
2 68387  97.2852 249.6930 0001731  62.1802 297.9641 15.80857067  3829
STARLINK-37203
1 68388U 26063J   26107.95003301  .00079965  00000+0  41392-3 0  9994
2 68388  97.2853 249.6942 0001545  71.8991 288.2446 15.80840824  3822
STARLINK-37197
1 68389U 26063K   26107.91711912  .00095604  00000+0  63404-3 0  9991
2 68389  97.2846 249.5852 0001440  90.2664 269.8766 15.75213715  3816
STARLINK-37193
1 68390U 26063L   26107.91668981 -.00107095  00000+0 -72468-3 0  9990
2 68390  97.2854 249.8701 0001336  96.1640 215.4598 15.75237013  3093
CZ-2D R/B
1 68379U 26062C   26107.99841312  .00006808  00000+0  21810-3 0  9998
2 68379  97.4972 116.5321 0050768 340.5532  19.3771 15.31445072  3531
